start=new Date('2023-02-21T00:00:00.000Z').valueOf();
sats=[{"COUNTRY_CODE":"US","SITE":"AFETR","MEAN_MOTION_DOT":"-0.00001087","PERIOD":"95.437","APOAPSIS":"540.634","MEAN_MOTION_DDOT":"0.0000000000000","CLASSIFICATION_TYPE":"U","SEMIMAJOR_AXIS":"6917.863","FILE":"3817182","REF_FRAME":"TEME","MEAN_MOTION":"15.08845810","OBJECT_NAME":"STARLINK-4784","BSTAR":"-0.00005022400000","MEAN_ANOMALY":"255.5275","OBJECT_ID":"2022-114X","TLE_LINE2":"2 53839  53.2178 249.6038 0001310 104.5863 255.5275 15.08845810 24445","RA_OF_ASC_NODE":"249.6038","DECAY_DATE":null,"ARG_OF_PERICENTER":"104.5863","TLE_LINE1":"1 53839U 22114X   23051.95924739 -.00001087  00000-0 -50224-4 0  9992","CENTER_NAME":"EARTH","LAUNCH_DATE":"2022-09-19","TIME_SYSTEM":"UTC","INCLINATION":"53.2178","PERIAPSIS":"538.821","RCS_SIZE":"LARGE","MEAN_ELEMENT_THEORY":"SGP4","NORAD_CAT_ID":"53839","GP_ID":"226191070","OBJECT_TYPE":"PAYLOAD","EPOCH":"2023-02-20T23:01:18.974496","ECCENTRICITY":"0.00013100","ELEMENT_SET_NO":"999","EPHEMERIS_TYPE":"0","REV_AT_EPOCH":"2444"},{"GP_ID":"226190846","OBJECT_TYPE":"PAYLOAD","MEAN_ELEMENT_THEORY":"SGP4","NORAD_CAT_ID":"53840","ELEMENT_SET_NO":"999","EPHEMERIS_TYPE":"0","REV_AT_EPOCH":"2442","EPOCH":"2023-02-20T19:24:01.471104","ECCENTRICITY":"0.00011600","DECAY_DATE":null,"ARG_OF_PERICENTER":"71.0882","TLE_LINE2":"2 53840  53.2153 250.0877 0001160  71.0882 289.0236 15.08845664 24423","RA_OF_ASC_NODE":"250.0877","PERIAPSIS":"538.926","INCLINATION":"53.2153","RCS_SIZE":"LARGE","TLE_LINE1":"1 53840U 22114Y   23051.80835036 -.00000546  00000-0 -16207-4 0  9991","CENTER_NAME":"EARTH","LAUNCH_DATE":"2022-09-19","TIME_SYSTEM":"UTC","MEAN_MOTION":"15.08845664","FILE":"3817182","REF_FRAME":"TEME","BSTAR":"-0.00001620700000","MEAN_ANOMALY":"289.0236","OBJECT_ID":"2022-114Y","OBJECT_NAME":"STARLINK-4766","COUNTRY_CODE":"US","SITE":"AFETR","PERIOD":"95.437","MEAN_MOTION_DOT":"-0.00000546","APOAPSIS":"540.531","MEAN_MOTION_DDOT":"0.0000000000000","CLASSIFICATION_TYPE":"U","SEMIMAJOR_AXIS":"6917.863"},{"SEMIMAJOR_AXIS":"6917.876","MEAN_MOTION_DDOT":"0.0000000000000","CLASSIFICATION_TYPE":"U","APOAPSIS":"540.647","PERIOD":"95.437","MEAN_MOTION_DOT":"0.00000418","SITE":"AFETR","COUNTRY_CODE":"US","MEAN_ANOMALY":"288.6810","OBJECT_ID":"2022-114Z","BSTAR":"0.00004436500000","OBJECT_NAME":"STARLINK-4750","MEAN_MOTION":"15.08841515","REF_FRAME":"TEME","FILE":"3815761","RCS_SIZE":"LARGE","INCLINATION":"53.2172","PERIAPSIS":"538.835","TIME_SYSTEM":"UTC","LAUNCH_DATE":"2022-09-19","CENTER_NAME":"EARTH","TLE_LINE1":"1 53841U 22114Z   23051.55076139  .00000418  00000-0  44365-4 0  9997","ARG_OF_PERICENTER":"71.4324","DECAY_DATE":null,"RA_OF_ASC_NODE":"251.3180","TLE_LINE2":"2 53841  53.2172 251.3180 0001310  71.4324 288.6810 15.08841515 24927","REV_AT_EPOCH":"2492","EPHEMERIS_TYPE":"0","ELEMENT_SET_NO":"999","ECCENTRICITY":"0.00013100","EPOCH":"2023-02-20T13:13:05.784096","OBJECT_TYPE":"PAYLOAD","GP_ID":"226160320","NORAD_CAT_ID":"53841","MEAN_ELEMENT_THEORY":"SGP4"},{"REV_AT_EPOCH":"2493","ELEMENT_SET_NO":"999","EPHEMERIS_TYPE":"0","EPOCH":"2023-02-20T14:27:15.357312","ECCENTRICITY":"0.00012710","OBJECT_TYPE":"PAYLOAD","GP_ID":"226160571","MEAN_ELEMENT_THEORY":"SGP4","NORAD_CAT_ID":"53842","INCLINATION":"53.2172","PERIAPSIS":"538.894","RCS_SIZE":"LARGE","LAUNCH_DATE":"2022-09-19","CENTER_NAME":"EARTH","TIME_SYSTEM":"UTC","TLE_LINE1":"1 53842U 22114AA  23051.60226108 -.00000300  00000-0 -75065-6 0  9992","ARG_OF_PERICENTER":"93.9170","DECAY_DATE":null,"RA_OF_ASC_NODE":"250.9301","TLE_LINE2":"2 53842  53.2172 250.9301 0001271  93.9170 266.1968 15.08830764 24932","MEAN_ANOMALY":"266.1968","OBJECT_ID":"2022-114AA","BSTAR":"-0.00000075065000","OBJECT_NAME":"STARLINK-4754","MEAN_MOTION":"15.08830764","FILE":"3815761","REF_FRAME":"TEME","CLASSIFICATION_TYPE":"U","MEAN_MOTION_DDOT":"0.0000000000000","SEMIMAJOR_AXIS":"6917.909","APOAPSIS":"540.653","PERIOD":"95.438","MEAN_MOTION_DOT":"-0.00000300","COUNTRY_CODE":"US","SITE":"AFETR"},{"NORAD_CAT_ID":"53843","MEAN_ELEMENT_THEORY":"SGP4","GP_ID":"226193329","OBJECT_TYPE":"PAYLOAD","EPOCH":"2023-02-20T22:40:04.477728","ECCENTRICITY":"0.00012890","REV_AT_EPOCH":"2444","ELEMENT_SET_NO":"999","EPHEMERIS_TYPE":"0","RA_OF_ASC_NODE":"249.5122","TLE_LINE2":"2 53843  53.2184 249.5122 0001289  85.3044 274.8095 15.08873661 24441","ARG_OF_PERICENTER":"85.3044","DECAY_DATE":null,"LAUNCH_DATE":"2022-09-19","CENTER_NAME":"EARTH","TIME_SYSTEM":"UTC","TLE_LINE1":"1 53843U 22114AB  23051.94449627  .00006508  00000-0  42623-3 0  9998","INCLINATION":"53.2184","PERIAPSIS":"538.751","RCS_SIZE":"LARGE","FILE":"3817273","REF_FRAME":"TEME","MEAN_MOTION":"15.08873661","OBJECT_NAME":"STARLINK-4769","OBJECT_ID":"2022-114AB","MEAN_ANOMALY":"274.8095","BSTAR":"0.00042623000000","PERIOD":"95.435","MEAN_MOTION_DOT":"0.00006508","SITE":"AFETR","COUNTRY_CODE":"US","MEAN_MOTION_DDOT":"0.0000000000000","CLASSIFICATION_TYPE":"U","SEMIMAJOR_AXIS":"6917.778","APOAPSIS":"540.534"},{"EPOCH":"2023-02-20T23:48:57.041568","ECCENTRICITY":"0.00011070","ELEMENT_SET_NO":"999","EPHEMERIS_TYPE":"0","REV_AT_EPOCH":"2445","MEAN_ELEMENT_THEORY":"SGP4","NORAD_CAT_ID":"53844","OBJECT_TYPE":"PAYLOAD","GP_ID":"226191075","TLE_LINE1":"1 53844U 22114AC  23051.99232687  .00000026  00000-0  19692-4 0  9990","CENTER_NAME":"EARTH","LAUNCH_DATE":"2022-09-19","TIME_SYSTEM":"UTC","INCLINATION":"53.2170","PERIAPSIS":"538.962","RCS_SIZE":"LARGE","TLE_LINE2":"2 53844  53.2170 249.1042 0001107  82.1784 277.9333 15.08845881 24452","RA_OF_ASC_NODE":"249.1042","DECAY_DATE":null,"ARG_OF_PERICENTER":"82.1784","OBJECT_NAME":"STARLINK-4745","BSTAR":"0.00001969200000","OBJECT_ID":"2022-114AC","MEAN_ANOMALY":"277.9333","FILE":"3817182","REF_FRAME":"TEME","MEAN_MOTION":"15.08845881","APOAPSIS":"540.493","MEAN_MOTION_DDOT":"0.0000000000000","CLASSIFICATION_TYPE":"U","SEMIMAJOR_AXIS":"6917.862","COUNTRY_CODE":"US","SITE":"AFETR","PERIOD":"95.437","MEAN_MOTION_DOT":"0.00000026"},{"MEAN_MOTION_DOT":"0.00006492","PERIOD":"95.436","SITE":"AFETR","COUNTRY_CODE":"US","CLASSIFICATION_TYPE":"U","MEAN_MOTION_DDOT":"0.0000000000000","SEMIMAJOR_AXIS":"6917.809","APOAPSIS":"540.393","FILE":"3815761","REF_FRAME":"TEME","MEAN_MOTION":"15.08863379","OBJECT_NAME":"STARLINK-4753","OBJECT_ID":"2022-114AD","MEAN_ANOMALY":"256.6420","BSTAR":"0.00042532000000","RA_OF_ASC_NODE":"251.2750","TLE_LINE2":"2 53845  53.2154 251.2750 0001040 103.4688 256.6420 15.08863379 24926","ARG_OF_PERICENTER":"103.4688","DECAY_DATE":null,"LAUNCH_DATE":"2022-09-19","CENTER_NAME":"EARTH","TIME_SYSTEM":"UTC","TLE_LINE1":"1 53845U 22114AD  23051.53969574  .00006492  00000-0  42532-3 0  9994","PERIAPSIS":"538.954","INCLINATION":"53.2154","RCS_SIZE":"LARGE","MEAN_ELEMENT_THEORY":"SGP4","NORAD_CAT_ID":"53845","OBJECT_TYPE":"PAYLOAD","GP_ID":"226160821","EPOCH":"2023-02-20T12:57:09.711936","ECCENTRICITY":"0.00010400","REV_AT_EPOCH":"2492","ELEMENT_SET_NO":"999","EPHEMERIS_TYPE":"0"},{"APOAPSIS":"540.501","SEMIMAJOR_AXIS":"6917.858","MEAN_MOTION_DDOT":"0.0000000000000","CLASSIFICATION_TYPE":"U","SITE":"AFETR","COUNTRY_CODE":"US","MEAN_MOTION_DOT":"0.00001328","PERIOD":"95.437","OBJECT_NAME":"STARLINK-4746","BSTAR":"0.00010150000000","MEAN_ANOMALY":"275.9729","OBJECT_ID":"2022-114AE","REF_FRAME":"TEME","FILE":"3817182","MEAN_MOTION":"15.08847221","TLE_LINE1":"1 53846U 22114AE  23051.98495665  .00001328  00000-0  10150-3 0  9993","TIME_SYSTEM":"UTC","LAUNCH_DATE":"2022-09-19","CENTER_NAME":"EARTH","RCS_SIZE":"LARGE","INCLINATION":"53.2152","PERIAPSIS":"538.946","TLE_LINE2":"2 53846  53.2152 249.0589 0001124  84.1391 275.9729 15.08847221 24451","RA_OF_ASC_NODE":"249.0589","DECAY_DATE":null,"ARG_OF_PERICENTER":"84.1391","ECCENTRICITY":"0.00011240","EPOCH":"2023-02-20T23:38:20.254560","EPHEMERIS_TYPE":"0","ELEMENT_SET_NO":"999","REV_AT_EPOCH":"2445","MEAN_ELEMENT_THEORY":"SGP4","NORAD_CAT_ID":"53846","OBJECT_TYPE":"PAYLOAD","GP_ID":"226191078"},{"FILE":"3815761","REF_FRAME":"TEME","MEAN_MOTION":"15.08840584","OBJECT_NAME":"STARLINK-4777","BSTAR":"0.00010011000000","OBJECT_ID":"2022-114AF","MEAN_ANOMALY":"263.9959","SITE":"AFETR","COUNTRY_CODE":"US","PERIOD":"95.438","MEAN_MOTION_DOT":"0.00001306","APOAPSIS":"540.612","MEAN_MOTION_DDOT":"0.0000000000000","CLASSIFICATION_TYPE":"U","SEMIMAJOR_AXIS":"6917.879","NORAD_CAT_ID":"53847","MEAN_ELEMENT_THEORY":"SGP4","OBJECT_TYPE":"PAYLOAD","GP_ID":"226159820","EPOCH":"2023-02-20T14:21:57.266208","ECCENTRICITY":"0.00012560","ELEMENT_SET_NO":"999","EPHEMERIS_TYPE":"0","REV_AT_EPOCH":"2493","TLE_LINE2":"2 53847  53.2169 250.9084 0001256  96.1176 263.9959 15.08840584 24931","RA_OF_ASC_NODE":"250.9084","DECAY_DATE":null,"ARG_OF_PERICENTER":"96.1176","TLE_LINE1":"1 53847U 22114AF  23051.59857947  .00001306  00000-0  10011-3 0  9998","CENTER_NAME":"EARTH","LAUNCH_DATE":"2022-09-19","TIME_SYSTEM":"UTC","INCLINATION":"53.2169","PERIAPSIS":"538.875","RCS_SIZE":"LARGE"},{"OBJECT_NAME":"STARLINK-4780","BSTAR":"0.00024194000000","MEAN_ANOMALY":"282.9716","OBJECT_ID":"2022-114AG","FILE":"3817182","REF_FRAME":"TEME","MEAN_MOTION":"15.08866471","APOAPSIS":"540.509","CLASSIFICATION_TYPE":"U","MEAN_MOTION_DDOT":"0.0000000000000","SEMIMAJOR_AXIS":"6917.799","SITE":"AFETR","COUNTRY_CODE":"US","PERIOD":"95.436","MEAN_MOTION_DOT":"0.00003567","EPOCH":"2023-02-20T23:27:41.669568","ECCENTRICITY":"0.00012210","ELEMENT_SET_NO":"999","EPHEMERIS_TYPE":"0","REV_AT_EPOCH":"2445","MEAN_ELEMENT_THEORY":"SGP4","NORAD_CAT_ID":"53848","OBJECT_TYPE":"PAYLOAD","GP_ID":"226190839","TLE_LINE1":"1 53848U 22114AG  23051.97756562  .00003567  00000-0  24194-3 0  9990","LAUNCH_DATE":"2022-09-19","CENTER_NAME":"EARTH","TIME_SYSTEM":"UTC","PERIAPSIS":"538.820","INCLINATION":"53.2173","RCS_SIZE":"LARGE","TLE_LINE2":"2 53848  53.2173 249.0110 0001221  77.1413 282.9716 15.08866471 24453","RA_OF_ASC_NODE":"249.0110","DECAY_DATE":null,"ARG_OF_PERICENTER":"77.1413"}];
